start=new Date('2022-09-19T00:00:00.000Z').valueOf();
sats=[{"OBJECT_ID":"2022-016W","SITE":"AFETR","RA_OF_ASC_NODE":"253.2001","ECCENTRICITY":"0.00020120","COUNTRY_CODE":"US","FILE":"3577171","SEMIMAJOR_AXIS":"6917.893","EPOCH":"2022-09-18T06:53:36.899232","MEAN_MOTION":"15.08835771","CLASSIFICATION_TYPE":"U","GP_ID":"212908245","INCLINATION":"53.2177","REF_FRAME":"TEME","REV_AT_EPOCH":"3207","PERIOD":"95.438","APOAPSIS":"541.150","ELEMENT_SET_NO":"999","TIME_SYSTEM":"UTC","OBJECT_NAME":"STARLINK-3450","CENTER_NAME":"EARTH","BSTAR":"-0.00003379400000","MEAN_MOTION_DDOT":"0.0000000000000","TLE_LINE1":"1 51734U 22016W   22261.28723263 -.00000826  00000-0 -33794-4 0  9995","MEAN_ELEMENT_THEORY":"SGP4","DECAY_DATE":null,"PERIAPSIS":"538.366","ARG_OF_PERICENTER":"46.6721","EPHEMERIS_TYPE":"0","TLE_LINE2":"2 51734  53.2177 253.2001 0002012  46.6721 313.4438 15.08835771 32074","LAUNCH_DATE":"2022-02-21","OBJECT_TYPE":"PAYLOAD","RCS_SIZE":"LARGE","MEAN_ANOMALY":"313.4438","NORAD_CAT_ID":"51734","MEAN_MOTION_DOT":"-0.00000826"},{"EPHEMERIS_TYPE":"0","DECAY_DATE":null,"PERIAPSIS":"538.542","ARG_OF_PERICENTER":"53.4066","MEAN_ELEMENT_THEORY":"SGP4","TLE_LINE1":"1 51735U 22016X   22261.49330806 -.00004185  00000-0 -24497-3 0  9997","MEAN_MOTION_DOT":"-0.00004185","NORAD_CAT_ID":"51735","RCS_SIZE":"LARGE","MEAN_ANOMALY":"306.7084","TLE_LINE2":"2 51735  53.2169 252.2820 0001713  53.4066 306.7084 15.08846003 33229","LAUNCH_DATE":"2022-02-21","OBJECT_TYPE":"PAYLOAD","EPOCH":"2022-09-18T11:50:21.816384","COUNTRY_CODE":"US","FILE":"3577391","SEMIMAJOR_AXIS":"6917.862","ECCENTRICITY":"0.00017130","SITE":"AFETR","OBJECT_ID":"2022-016X","RA_OF_ASC_NODE":"252.2820","CENTER_NAME":"EARTH","BSTAR":"-0.00024497000000","MEAN_MOTION_DDOT":"0.0000000000000","APOAPSIS":"540.912","ELEMENT_SET_NO":"999","PERIOD":"95.437","TIME_SYSTEM":"UTC","OBJECT_NAME":"STARLINK-3517","GP_ID":"212942537","INCLINATION":"53.2169","REF_FRAME":"TEME","REV_AT_EPOCH":"3322","CLASSIFICATION_TYPE":"U","MEAN_MOTION":"15.08846003"},{"BSTAR":"0.00011890000000","CENTER_NAME":"EARTH","MEAN_MOTION_DDOT":"0.0000000000000","APOAPSIS":"540.948","ELEMENT_SET_NO":"999","PERIOD":"95.438","TIME_SYSTEM":"UTC","OBJECT_NAME":"STARLINK-3447","INCLINATION":"53.2165","GP_ID":"212966045","REV_AT_EPOCH":"3215","REF_FRAME":"TEME","CLASSIFICATION_TYPE":"U","MEAN_MOTION":"15.08832585","EPOCH":"2022-09-18T19:26:05.640000","COUNTRY_CODE":"US","SEMIMAJOR_AXIS":"6917.903","FILE":"3577422","ECCENTRICITY":"0.00017050","RA_OF_ASC_NODE":"250.8462","SITE":"AFETR","OBJECT_ID":"2022-016Y","MEAN_MOTION_DOT":"0.00001604","NORAD_CAT_ID":"51736","RCS_SIZE":"LARGE","MEAN_ANOMALY":"307.7495","LAUNCH_DATE":"2022-02-21","TLE_LINE2":"2 51736  53.2165 250.8462 0001705  52.3651 307.7495 15.08832585 32159","OBJECT_TYPE":"PAYLOAD","EPHEMERIS_TYPE":"0","PERIAPSIS":"538.589","DECAY_DATE":null,"ARG_OF_PERICENTER":"52.3651","MEAN_ELEMENT_THEORY":"SGP4","TLE_LINE1":"1 51736U 22016Y   22261.80978750  .00001604  00000-0  11890-3 0  9993"},{"RA_OF_ASC_NODE":"252.8804","SITE":"AFETR","OBJECT_ID":"2022-016Z","ECCENTRICITY":"0.00017770","COUNTRY_CODE":"US","SEMIMAJOR_AXIS":"6917.902","FILE":"3577171","EPOCH":"2022-09-18T08:34:17.456736","MEAN_MOTION":"15.08832911","CLASSIFICATION_TYPE":"U","INCLINATION":"53.2164","GP_ID":"212909487","REV_AT_EPOCH":"3208","REF_FRAME":"TEME","APOAPSIS":"540.996","ELEMENT_SET_NO":"999","PERIOD":"95.438","TIME_SYSTEM":"UTC","OBJECT_NAME":"STARLINK-3509","BSTAR":"0.00004049600000","CENTER_NAME":"EARTH","MEAN_MOTION_DDOT":"0.0000000000000","TLE_LINE1":"1 51737U 22016Z   22261.35714649  .00000356  00000-0  40496-4 0  9997","MEAN_ELEMENT_THEORY":"SGP4","PERIAPSIS":"538.538","DECAY_DATE":null,"ARG_OF_PERICENTER":"47.9277","EPHEMERIS_TYPE":"0","LAUNCH_DATE":"2022-02-21","TLE_LINE2":"2 51737  53.2164 252.8804 0001777  47.9277 312.1866 15.08832911 32081","OBJECT_TYPE":"PAYLOAD","RCS_SIZE":"LARGE","MEAN_ANOMALY":"312.1866","NORAD_CAT_ID":"51737","MEAN_MOTION_DOT":"0.00000356"},{"APOAPSIS":"540.989","PERIOD":"95.438","ELEMENT_SET_NO":"999","TIME_SYSTEM":"UTC","OBJECT_NAME":"STARLINK-3515","CENTER_NAME":"EARTH","BSTAR":"0.00003611900000","MEAN_MOTION_DDOT":"0.0000000000000","CLASSIFICATION_TYPE":"U","MEAN_MOTION":"15.08838250","GP_ID":"212966540","INCLINATION":"53.2181","REF_FRAME":"TEME","REV_AT_EPOCH":"3213","COUNTRY_CODE":"US","FILE":"3577422","SEMIMAJOR_AXIS":"6917.886","EPOCH":"2022-09-18T16:04:43.415616","SITE":"AFETR","RA_OF_ASC_NODE":"251.4837","OBJECT_ID":"2022-016AA","ECCENTRICITY":"0.00017900","NORAD_CAT_ID":"51738","MEAN_MOTION_DOT":"0.00000287","TLE_LINE2":"2 51738  53.2181 251.4837 0001790  41.0543 319.0583 15.08838250 32138","LAUNCH_DATE":"2022-02-21","OBJECT_TYPE":"PAYLOAD","RCS_SIZE":"LARGE","MEAN_ANOMALY":"319.0583","DECAY_DATE":null,"PERIAPSIS":"538.512","ARG_OF_PERICENTER":"41.0543","EPHEMERIS_TYPE":"0","TLE_LINE1":"1 51738U 22016AA  22261.66994694  .00000287  00000-0  36119-4 0  9992","MEAN_ELEMENT_THEORY":"SGP4"},{"EPHEMERIS_TYPE":"0","ARG_OF_PERICENTER":"51.7162","PERIAPSIS":"538.540","DECAY_DATE":null,"MEAN_ELEMENT_THEORY":"SGP4","TLE_LINE1":"1 51739U 22016AB  22261.68098919  .00001098  00000-0  87117-4 0  9995","MEAN_MOTION_DOT":"0.00001098","NORAD_CAT_ID":"51739","MEAN_ANOMALY":"308.3989","RCS_SIZE":"LARGE","OBJECT_TYPE":"PAYLOAD","LAUNCH_DATE":"2022-02-21","TLE_LINE2":"2 51739  53.2187 251.4360 0001766  51.7162 308.3989 15.08834537 32139","EPOCH":"2022-09-18T16:20:37.466016","SEMIMAJOR_AXIS":"6917.897","FILE":"3577422","COUNTRY_CODE":"US","ECCENTRICITY":"0.00017660","RA_OF_ASC_NODE":"251.4360","SITE":"AFETR","OBJECT_ID":"2022-016AB","MEAN_MOTION_DDOT":"0.0000000000000","BSTAR":"0.00008711700000","CENTER_NAME":"EARTH","OBJECT_NAME":"STARLINK-3516","APOAPSIS":"540.984","PERIOD":"95.438","ELEMENT_SET_NO":"999","TIME_SYSTEM":"UTC","REV_AT_EPOCH":"3213","REF_FRAME":"TEME","INCLINATION":"53.2187","GP_ID":"212966793","MEAN_MOTION":"15.08834537","CLASSIFICATION_TYPE":"U"},{"EPOCH":"2022-09-18T06:21:47.979360","FILE":"3577171","SEMIMAJOR_AXIS":"6917.874","COUNTRY_CODE":"US","ECCENTRICITY":"0.00019710","RA_OF_ASC_NODE":"253.2932","SITE":"AFETR","OBJECT_ID":"2022-016AC","MEAN_MOTION_DDOT":"0.0000000000000","CENTER_NAME":"EARTH","BSTAR":"0.00001360200000","OBJECT_NAME":"STARLINK-3500","APOAPSIS":"541.102","PERIOD":"95.437","ELEMENT_SET_NO":"999","TIME_SYSTEM":"UTC","REF_FRAME":"TEME","REV_AT_EPOCH":"3207","GP_ID":"212909745","INCLINATION":"53.2175","CLASSIFICATION_TYPE":"U","MEAN_MOTION":"15.08842125","EPHEMERIS_TYPE":"0","ARG_OF_PERICENTER":"42.3076","DECAY_DATE":null,"PERIAPSIS":"538.375","MEAN_ELEMENT_THEORY":"SGP4","TLE_LINE1":"1 51740U 22016AC  22261.26513865 -.00000072  00000-0  13602-4 0  9993","MEAN_MOTION_DOT":"-0.00000072","NORAD_CAT_ID":"51740","MEAN_ANOMALY":"317.8068","RCS_SIZE":"LARGE","OBJECT_TYPE":"PAYLOAD","TLE_LINE2":"2 51740  53.2175 253.2932 0001971  42.3076 317.8068 15.08842125 32079","LAUNCH_DATE":"2022-02-21"},{"OBJECT_TYPE":"PAYLOAD","TLE_LINE2":"2 51741  53.2175 251.4606 0001305  70.2205 289.8927 15.08847482 32133","LAUNCH_DATE":"2022-02-21","MEAN_ANOMALY":"289.8927","RCS_SIZE":"LARGE","NORAD_CAT_ID":"51741","MEAN_MOTION_DOT":"0.00000690","TLE_LINE1":"1 51741U 22016AD  22261.67361536  .00000690  00000-0  61407-4 0  9996","MEAN_ELEMENT_THEORY":"SGP4","ARG_OF_PERICENTER":"70.2205","DECAY_DATE":null,"PERIAPSIS":"538.820","EPHEMERIS_TYPE":"0","CLASSIFICATION_TYPE":"U","MEAN_MOTION":"15.08847482","REF_FRAME":"TEME","REV_AT_EPOCH":"3213","GP_ID":"212966295","INCLINATION":"53.2175","OBJECT_NAME":"STARLINK-3520","ELEMENT_SET_NO":"999","APOAPSIS":"540.625","PERIOD":"95.437","TIME_SYSTEM":"UTC","MEAN_MOTION_DDOT":"0.0000000000000","CENTER_NAME":"EARTH","BSTAR":"0.00006140700000","SITE":"AFETR","RA_OF_ASC_NODE":"251.4606","OBJECT_ID":"2022-016AD","ECCENTRICITY":"0.00013050","FILE":"3577422","SEMIMAJOR_AXIS":"6917.858","COUNTRY_CODE":"US","EPOCH":"2022-09-18T16:10:00.367104"},{"DECAY_DATE":null,"PERIAPSIS":"538.628","ARG_OF_PERICENTER":"57.1849","EPHEMERIS_TYPE":"0","TLE_LINE1":"1 51742U 22016AE  22261.79138260 -.00000646  00000-0 -22475-4 0  9991","MEAN_ELEMENT_THEORY":"SGP4","NORAD_CAT_ID":"51742","MEAN_MOTION_DOT":"-0.00000646","TLE_LINE2":"2 51742  53.2159 250.9227 0001630  57.1849 302.9300 15.08836799 32151","LAUNCH_DATE":"2022-02-21","OBJECT_TYPE":"PAYLOAD","RCS_SIZE":"LARGE","MEAN_ANOMALY":"302.9300","COUNTRY_CODE":"US","FILE":"3577422","SEMIMAJOR_AXIS":"6917.890","EPOCH":"2022-09-18T18:59:35.456640","RA_OF_ASC_NODE":"250.9227","SITE":"AFETR","OBJECT_ID":"2022-016AE","ECCENTRICITY":"0.00016300","PERIOD":"95.438","APOAPSIS":"540.883","TIME_SYSTEM":"UTC","ELEMENT_SET_NO":"999","OBJECT_NAME":"STARLINK-3521","CENTER_NAME":"EARTH","BSTAR":"-0.00002247500000","MEAN_MOTION_DDOT":"0.0000000000000","CLASSIFICATION_TYPE":"U","MEAN_MOTION":"15.08836799","GP_ID":"212967040","INCLINATION":"53.2159","REF_FRAME":"TEME","REV_AT_EPOCH":"3215"},{"PERIOD":"95.438","APOAPSIS":"541.191","TIME_SYSTEM":"UTC","ELEMENT_SET_NO":"999","OBJECT_NAME":"STARLINK-3512","CENTER_NAME":"EARTH","BSTAR":"0.00008840100000","MEAN_MOTION_DDOT":"0.0000000000000","CLASSIFICATION_TYPE":"U","MEAN_MOTION":"15.08837551","GP_ID":"212908994","INCLINATION":"53.2145","REF_FRAME":"TEME","REV_AT_EPOCH":"3223","COUNTRY_CODE":"US","FILE":"3577171","SEMIMAJOR_AXIS":"6917.888","EPOCH":"2022-09-18T10:05:42.164160","SITE":"AFETR","RA_OF_ASC_NODE":"242.5970","OBJECT_ID":"2022-016AF","ECCENTRICITY":"0.00020790","NORAD_CAT_ID":"51743","MEAN_MOTION_DOT":"0.00001119","TLE_LINE2":"2 51743  53.2145 242.5970 0002079  45.3503 314.7659 15.08837551 32237","LAUNCH_DATE":"2022-02-21","OBJECT_TYPE":"PAYLOAD","RCS_SIZE":"LARGE","MEAN_ANOMALY":"314.7659","DECAY_DATE":null,"PERIAPSIS":"538.315","ARG_OF_PERICENTER":"45.3503","EPHEMERIS_TYPE":"0","TLE_LINE1":"1 51743U 22016AF  22261.42062690  .00001119  00000-0  88401-4 0  9990","MEAN_ELEMENT_THEORY":"SGP4"}];
